*******************************************************************************
Ephemeris / WWW_USER Fri Jan  3 08:28:52 2025 Pasadena, USA      / Horizons
*******************************************************************************
Target body name: {Unspecified by user} (-824282) {source: USER-INPUT TLE}
Center body name: Earth (399)                     {source: DE441}
Center-site name: BODY CENTER
*******************************************************************************
Start time      : A.D. 2024-Oct-01 00:00:00.0000 TDB
Stop  time      : A.D. 2024-Nov-01 00:00:00.0000 TDB
Step-size       : 5 minutes
*******************************************************************************
Center geodetic : 0.0, 0.0, 0.0                   {E-lon(deg),Lat(deg),Alt(km)}
Center cylindric: 0.0, 0.0, 0.0                   {E-lon(deg),Dxy(km),Dz(km)}
Center radii    : 6378.137, 6378.137, 6356.752 km {Equator_a, b, pole_c}
Keplerian GM    : 3.9860043550702260E+05 km^3/s^2
Output units    : KM-S, deg, Julian Day Number (Tp)
Calendar mode   : Mixed Julian/Gregorian
Output type     : GEOMETRIC osculating elements
Output format   : 10
EOP file        : eop.250102.p250331
EOP coverage    : DATA-BASED 1962-JAN-20 TO 2025-JAN-02. PREDICTS-> 2025-MAR-30
Reference frame : ICRF
*******************************************************************************
            JDTDB,            Calendar Date (TDB),                     EC,                     QR,                     IN,                     OM,                      W,                     Tp,                      N,                     MA,                     TA,                      A,                     AD,                     PR,
**************************************************************************************************************************************************************************************************************************************************************************************************************************************************
$$SOE
2460599.354166667, A.D. 2024-Oct-15 20:30:00.0000,  3.465568507150996E-01,  2.644180990627808E+04,  1.716826549066447E+01,  2.041805014585720E+02,  2.417338284520899E+02,  2.460599409313627E+06,  4.443922357836990E-03,  3.388260547275785E+02,  3.158259007638255E+02,  4.046535637448313E+04,  5.448890284268819E+04,  8.100951614627767E+04,
2460599.357638889, A.D. 2024-Oct-15 20:35:00.0000,  3.465576001679867E-01,  2.644177160129437E+04,  1.716824462830230E+01,  2.041805345696129E+02,  2.417340198352278E+02,  2.460599409313772E+06,  4.443924369091273E-03,  3.401591669544045E+02,  3.183649670657410E+02,  4.046534416513531E+04,  5.448891672897624E+04,  8.100947948257173E+04,
2460599.361111111, A.D. 2024-Oct-15 20:40:00.0000,  3.465582709955838E-01,  2.644173471630062E+04,  1.716822081496619E+01,  2.041805619637519E+02,  2.417342228919595E+02,  2.460599409313930E+06,  4.443926824448419E-03,  3.414922733251389E+02,  3.209458597555286E+02,  4.046532925986721E+04,  5.448892380343379E+04,  8.100943472323788E+04,
2460599.364583333, A.D. 2024-Oct-15 20:45:00.0000,  3.465588599534907E-01,  2.644169937355214E+04,  1.716819415022908E+01,  2.041805824637323E+02,  2.417344375755465E+02,  2.460599409314100E+06,  4.443929726186668E-03,  3.428253748526671E+02,  3.235673803850303E+02,  4.046531164485621E+04,  5.448892391616029E+04,  8.100938182677241E+04,
2460599.368055556, A.D. 2024-Oct-15 20:50:00.0000,  3.465593648079503E-01,  2.644166568633303E+04,  1.716816478024482E+01,  2.041805948929663E+02,  2.417346637326249E+02,  2.460599409314280E+06,  4.443933068535930E-03,  3.441584726498137E+02,  3.262280815098351E+02,  4.046529135513847E+04,  5.448891702394391E+04,  8.100932089839132E+04,
2460599.371527778, A.D. 2024-Oct-15 20:55:00.0000,  3.465597844786861E-01,  2.644163375645740E+04,  1.716813289967728E+01,  2.041805980990792E+02,  2.417349011040722E+02,  2.460599409314469E+06,  4.443936836850554E-03,  3.454915679084404E+02,  3.289262590111085E+02,  4.046526847963021E+04,  5.448890320280303E+04,  8.100925220510880E+04,
2460599.375000000, A.D. 2024-Oct-15 21:00:00.0000,  3.465601191563891E-01,  2.644160367197782E+04,  1.716809875249486E+01,  2.041805909797126E+02,  2.417351493294399E+02,  2.460599409314663E+06,  4.443941006988393E-03,  3.468246618731996E+02,  3.316599475869551E+02,  4.046524316489668E+04,  5.448888265781554E+04,  8.100917618705471E+04,
2460599.378472222, A.D. 2024-Oct-15 21:05:00.0000,  3.465603703852951E-01,  2.644157550523667E+04,  1.716806263143757E+01,  2.041805725099076E+02,  2.417354079549684E+02,  2.460599409314862E+06,  4.443945544959649E-03,  3.481577558105112E+02,  3.344269199024552E+02,  4.046521561728315E+04,  5.448885572932964E+04,  8.100909346387340E+04,
2460599.381944444, A.D. 2024-Oct-15 21:10:00.0000,  3.465605411019629E-01,  2.644154931139396E+04,  1.716802487599957E+01,  2.041805417702080E+02,  2.417356764449390E+02,  2.460599409315063E+06,  4.443950406902335E-03,  3.494908509737386E+02,  3.372246898304164E+02,  4.046518610306315E+04,  5.448882289473234E+04,  8.100900483516844E+04,
2460599.385416667, A.D. 2024-Oct-15 21:15:00.0000,  3.465606356228076E-01,  2.644152512754979E+04,  1.716798586882445E+01,  2.041804979744519E+02,  2.417359541958610E+02,  2.460599409315263E+06,  4.443955539430644E-03,  3.508239485659345E+02,  3.400505201291464E+02,  4.046515494632282E+04,  5.448878476509585E+04,  8.100891127414901E+04,
2460599.388888889, A.D. 2024-Oct-15 21:20:00.0000,  3.465606595752909E-01,  2.644150297255284E+04,  1.716794603047894E+01,  2.041804404961018E+02,  2.417362405527313E+02,  2.460599409315461E+06,  4.443960880385163E-03,  3.521570497018778E+02,  3.429014347895903E+02,  4.046512252440593E+04,  5.448874207625902E+04,  8.100881391395110E+04,
2460599.392361111, A.D. 2024-Oct-15 21:25:00.0000,  3.465606197706849E-01,  2.644148284754826E+04,  1.716790581265197E+01,  2.041803688918941E+02,  2.417365348263854E+02,  2.460599409315655E+06,  4.443966359992735E-03,  3.534901553713919E+02,  3.457742361446086E+02,  4.046508926087221E+04,  5.448869567419615E+04,  8.100871402649154E+04,
2460599.395833333, A.D. 2024-Oct-15 21:30:00.0000,  3.465605240201117E-01,  2.644146473727071E+04,  1.716786568991508E+01,  2.041802829215978E+02,  2.417368363108160E+02,  2.460599409315844E+06,  4.443971902417088E-03,  3.548232664060640E+02,  3.486655266730155E+02,  4.046505561608361E+04,  5.448864649489650E+04,  8.100861299419896E+04,
2460599.399305556, A.D. 2024-Oct-15 21:35:00.0000,  3.465603808994670E-01,  2.644144861203441E+04,  1.716782615026985E+01,  2.041801825627644E+02,  2.417371442992794E+02,  2.460599409316026E+06,  4.443977427655335E-03,  3.561563834514524E+02,  3.515717352575583E+02,  4.046502207569133E+04,  5.448859553934826E+04,  8.100851227544101E+04,
2460599.402777778, A.D. 2024-Oct-15 21:40:00.0000,  3.465601994728293E-01,  2.644143443031882E+04,  1.716778768479266E+01,  2.041800680195246E+02,  2.417374580980733E+02,  2.460599409316199E+06,  4.443982853707715E-03,  3.574895069466346E+02,  3.544891474786176E+02,  4.046498913746433E+04,  5.448854384460984E+04,  8.100841336497145E+04,
2460599.406250000, A.D. 2024-Oct-15 21:45:00.0000,  3.465599889874376E-01,  2.644142214179920E+04,  1.716775077675626E+01,  2.041799397247419E+02,  2.417377770370375E+02,  2.460599409316364E+06,  4.443988098925323E-03,  3.588226371128377E+02,  3.574139393554188E+02,  4.046495729703773E+04,  5.448849245227627E+04,  8.100831775113389E+04,
2460599.409722222, A.D. 2024-Oct-15 21:50:00.0000,  3.465597585559873E-01,  2.644141169063344E+04,  1.716771589065742E+01,  2.041797983351544E+02,  2.417381004761114E+02,  2.460599409316519E+06,  4.443993084422560E-03,  1.557739513514289E-01,  3.422137916587890E-01,  4.046492703326869E+04,  5.448844237590393E+04,  8.100822687188708E+04,
2460599.413194444, A.D. 2024-Oct-15 21:55:00.0000,  3.465595168434199E-01,  2.644140301879320E+04,  1.716768346160259E+01,  2.041796447194967E+02,  2.417384278076301E+02,  2.460599409316666E+06,  4.443997736432611E-03,  1.488917252281523E+00,  3.270038862727084E+00,  4.046489879393836E+04,  5.448839456908352E+04,  8.100814207186963E+04,
2460599.416666667, A.D. 2024-Oct-15 22:00:00.0000,  3.465592717755197E-01,  2.644139606922275E+04,  1.716765388549616E+01,  2.041794799399704E+02,  2.417387584544380E+02,  2.460599409316803E+06,  4.444001988483863E-03,  2.822066612483796E+00,  6.193486989642479E+00,  4.046487298254111E+04,  5.448834989585947E+04,  8.100806456272971E+04,
2460599.420138889, A.D. 2024-Oct-15 22:05:00.0000,  3.465590302852926E-01,  2.644139078862467E+04,  1.716762751043885E+01,  2.041793052277906E+02,  2.417390918642792E+02,  2.460599409316932E+06,  4.444005783285031E-03,  4.155221462367315E+00,  9.108674006825972E+00,  4.046484994684216E+04,  5.448830910505965E+04,  8.100799538876528E+04,
2460599.423611111, A.D. 2024-Oct-15 22:10:00.0000,  3.465587981103321E-01,  2.644138712970351E+04,  1.716760462967914E+01,  2.041791219538512E+02,  2.417394275012668E+02,  2.460599409317052E+06,  4.444009074226673E-03,  5.488381099612225E+00,  1.201179713343335E+01,  4.046482996976381E+04,  5.448827280982410E+04,  8.100793539955711E+04,
2460599.427083333, A.D. 2024-Oct-15 22:15:00.0000,  3.465585796508227E-01,  2.644138505274653E+04,  1.716758547637379E+01,  2.041789315957886E+02,  2.417397648354726E+02,  2.460599409317165E+06,  4.444011826431366E-03,  6.821544727756031E+00,  1.489917091063292E+01,  4.046481326301162E+04,  5.448824147327671E+04,  8.100788523082926E+04,
2460599.430555556, A.D. 2024-Oct-15 22:20:00.0000,  3.465583778932415E-01,  2.644138452647643E+04,  1.716757022031159E+01,  2.041787357028805E+02,  2.417401033318162E+02,  2.460599409317271E+06,  4.444014017317085E-03,  8.154711497255429E+00,  1.776726026195330E+01,  4.046479996365531E+04,  5.448821540083420E+04,  8.100784529418229E+04,
